[{"OBJECT_NAME":"STARLINK-31424","OBJECT_ID":"2024-049S","EPOCH":"2026-03-09T06:44:09.395520","MEAN_MOTION":15.27569142,"ECCENTRICITY":0.00016022,"INCLINATION":43.0004,"RA_OF_ASC_NODE":142.3688,"ARG_OF_PERICENTER":293.1719,"MEAN_ANOMALY":66.8964,"EPHEMERIS_TYPE":0,"CLASSIFICATION_TYPE":"U","NORAD_CAT_ID":59247,"ELEMENT_SET_NO":999,"REV_AT_EPOCH":11237,"BSTAR":5.6209495e-5,"MEAN_MOTION_DOT":1.284e-5,"MEAN_MOTION_DDOT":0},{"OBJECT_NAME":"NUSAT-48 (HENRIETTA LEAVITT)","OBJECT_ID":"2024-149AG","EPOCH":"2026-03-09T19:19:17.269536","MEAN_MOTION":15.29812597,"ECCENTRICITY":0.00027538,"INCLINATION":97.3923,"RA_OF_ASC_NODE":150.8264,"ARG_OF_PERICENTER":263.3026,"MEAN_ANOMALY":96.7901,"EPHEMERIS_TYPE":0,"CLASSIFICATION_TYPE":"U","NORAD_CAT_ID":60498,"ELEMENT_SET_NO":999,"REV_AT_EPOCH":8694,"BSTAR":0.00045211745,"MEAN_MOTION_DOT":0.00012988,"MEAN_MOTION_DDOT":0}]
